NORAD_CAT_ID,OBJECT_NAME,OBJECT_TYPE,EPOCH,MEAN_MOTION,ECCENTRICITY,INCLINATION,RA_OF_ASC_NODE,ARG_OF_PERICENTER,MEAN_ANOMALY,BSTAR,MEAN_MOTION_DOT,MEAN_MOTION_DDOT,TLE_LINE0,TLE_LINE1,TLE_LINE2,SEMIMAJOR_AXIS,PERIOD,APOGEE,PERIGEE,DECAYED
48148,STARLINK-2491,PAYLOAD,2021-06-15 04:00:00,15.06418816,0.0001536,53.0516,11.2469,94.1932,35.9657,-0.0033765,-0.00050247,0.0,0 STARLINK-2491,1 48148U 21027BJ  21166.16667824 -.00050247  00000-0 -33765-2 0  9999,2 48148  53.0516  11.2469 0001536  94.1932  35.9657 15.06418816 11482,6925.291,95.59100000000001,548.22,546.092,0.0
48148,STARLINK-2491,PAYLOAD,2021-06-15 14:00:01,15.06400217,0.0001636,53.0525,9.3751,106.223,124.7802,0.00029375,4.097e-05,0.0,0 STARLINK-2491,1 48148U 21027BJ  21166.58334491  .00004097  00000-0  29375-3 0  9999,2 48148  53.0525   9.3751 0001636 106.2230 124.7802 15.06400217 11543,6925.348000000001,95.59200000000001,548.346,546.08,0.0
48148,STARLINK-2491,PAYLOAD,2021-06-15 22:00:00,15.06385804,0.0001579,53.0524,7.8804,96.9331,142.7566,0.0011705,0.00017189,0.0,0 STARLINK-2491,1 48148U 21027BJ  21166.91667824  .00017189  00000-0  11705-2 0  9998,2 48148  53.0524   7.8804 0001579  96.9331 142.7566 15.06385804  1806,6925.392,95.59299999999999,548.351,546.164,0.0
48148,STARLINK-2491,PAYLOAD,2021-06-16 14:00:01,15.064642000000001,0.0001582,53.0522,4.8855,105.3746,151.6503,-0.010621,-0.0015534000000000001,0.0,0 STARLINK-2491,1 48148U 21027BJ  21167.58334491 -.00155340  00000-0 -10621-1 0  9992,2 48148  53.0522   4.8855 0001582 105.3746 151.6503 15.06464200  1905,6925.151999999999,95.588,548.112,545.9209999999998,0.0
48148,STARLINK-2491,PAYLOAD,2021-06-16 20:00:01,15.06299928,0.0001402,53.0524,3.7651,94.02600000000001,79.5506,0.0061839,0.00092795,0.0,0 STARLINK-2491,1 48148U 21027BJ  21167.83334491  .00092795  00000-0  61839-2 0  9990,2 48148  53.0524   3.7651 0001402  94.0260  79.5506 15.06299928 11731,6925.655,95.598,548.491,546.549,0.0
48148,STARLINK-2491,PAYLOAD,2021-06-16 22:00:00,15.06390359,0.0001585,53.0524,3.391,97.2412,168.4953,0.0018090999999999997,0.00026761,0.0,0 STARLINK-2491,1 48148U 21027BJ  21167.91667824  .00026761  00000-0  18091-2 0  9990,2 48148  53.0524   3.3910 0001585  97.2412 168.4953 15.06390359  1756,6925.378000000002,95.59299999999999,548.341,546.145,0.0
48148,STARLINK-2491,PAYLOAD,2021-06-17 04:00:00,15.06436702,0.00014780000000000001,53.0522,2.2678,100.4157,81.8229,-0.0052264,-0.00077364,0.0,0 STARLINK-2491,1 48148U 21027BJ  21168.16667824 -.00077364  00000-0 -52264-2 0  9995,2 48148  53.0522   2.2678 0001478 100.4157  81.8229 15.06436702 11788,6925.236,95.59,548.125,546.078,0.0
48148,STARLINK-2491,PAYLOAD,2021-06-17 12:00:00,15.06375365,0.0001505,53.0525,0.7702,108.13600000000001,82.7963,0.001779,0.00026298,0.0,0 STARLINK-2491,1 48148U 21027BJ  21168.50001157  .00026298  00000-0  17790-2 0  9997,2 48148  53.0525   0.7702 0001505 108.1360  82.7963 15.06375365 11832,6925.424,95.594,548.331,546.247,0.0
48148,STARLINK-2491,PAYLOAD,2021-06-17 14:00:01,15.06393132,0.0001516,53.0525,0.3964,107.4862,175.6053,-0.00018008,-2.962e-05,0.0,0 STARLINK-2491,1 48148U 21027BJ  21168.58334491 -.00002962  00000-0 -18008-3 0  9993,2 48148  53.0525   0.3964 0001516 107.4862 175.6053 15.06393132  1854,6925.37,95.59299999999999,548.284,546.185,0.0
48148,STARLINK-2491,PAYLOAD,2021-06-17 22:00:00,15.06367989,0.0001471,53.0527,358.9017,97.5243,194.2382,0.0021941999999999994,0.00032524,0.0,0 STARLINK-2491,1 48148U 21027BJ  21168.91667824  .00032524  00000-0  21942-2 0  9994,2 48148  53.0527 358.9017 0001471  97.5243 194.2382 15.06367989  1751,6925.446999999999,95.594,548.33,546.293,0.0
48148,STARLINK-2491,PAYLOAD,2021-06-18 04:00:01,15.06404689,0.00014099999999999998,53.0526,357.7784,101.2152,107.0957,-0.0022254,-0.00033279,0.0,0 STARLINK-2491,1 48148U 21027BJ  21169.16668981 -.00033279  00000-0 -22254-2 0  9994,2 48148  53.0526 357.7784 0001410 101.2152 107.0957 15.06404689 11933,6925.334,95.59200000000001,548.1759999999998,546.2230000000002,0.0
48148,STARLINK-2491,PAYLOAD,2021-06-18 14:00:01,15.0640198,0.00015030000000000002,53.053000000000004,355.9073,107.5614,201.5192,-0.00060341,-9.258e-05,0.0,0 STARLINK-2491,1 48148U 21027BJ  21169.58334491 -.00009258  00000-0 -60341-3 0  9996,2 48148  53.0530 355.9073 0001503 107.5614 201.5192 15.06401980  1799,6925.342,95.59200000000001,548.248,546.1669999999998,0.0
48148,STARLINK-2491,PAYLOAD,2021-06-18 18:00:00,15.064019199999999,0.00014659999999999999,53.0529,355.1601,101.5766,31.8445,-0.0015892,-0.00023875,0.0,0 STARLINK-2491,1 48148U 21027BJ  21169.75001157 -.00023875  00000-0 -15892-2 0  9996,2 48148  53.0529 355.1601 0001466 101.5766  31.8445 15.06401920  1829,6925.343000000003,95.59200000000001,548.2230000000002,546.192,0.0
48148,STARLINK-2491,PAYLOAD,2021-06-19 14:00:01,15.06330126,0.00014230000000000002,53.0516,351.4174,101.41799999999999,233.6798,0.0067541,0.00101588,0.0,0 STARLINK-2491,1 48148U 21027BJ  21170.58334491  .00101588  00000-0  67541-2 0  9993,2 48148  53.0516 351.4174 0001423 101.4180 233.6798 15.06330126  1946,6925.563,95.59700000000001,548.413,546.442,0.0
48148,STARLINK-2491,PAYLOAD,2021-06-19 22:00:01,15.06379647,0.0001402,53.053000000000004,349.9232,100.3783,243.4743,0.0025439,0.00037793,0.0,0 STARLINK-2491,1 48148U 21027BJ  21170.91668981  .00037793  00000-0  25439-2 0  9990,2 48148  53.0530 349.9232 0001402 100.3783 243.4743 15.06379647  1796,6925.411,95.59299999999999,548.247,546.305,0.0
48148,STARLINK-2491,PAYLOAD,2021-06-20 12:00:00,15.06467189,0.0001415,53.0533,347.3028,111.9702,156.988,-0.011109,-0.00162317,0.0,0 STARLINK-2491,1 48148U 21027BJ  21171.50001157 -.00162317  00000-0 -11109-1 0  9993,2 48148  53.0533 347.3028 0001415 111.9702 156.9880 15.06467189 12293,6925.143,95.588,547.988,546.028,0.0
48148,STARLINK-2491,PAYLOAD,2021-06-20 14:00:01,15.0646914,0.00013440000000000001,53.0536,346.9293,105.8556,255.2758,-0.014508000000000004,-0.00210484,0.0,0 STARLINK-2491,1 48148U 21027BJ  21171.58334491 -.00210484  00000-0 -14508-1 0  9996,2 48148  53.0536 346.9293 0001344 105.8556 255.2758 15.06469140  1907,6925.137,95.588,547.932,546.071,0.0
48148,STARLINK-2491,PAYLOAD,2021-06-21 14:00:01,15.06422461,0.00014099999999999998,53.0523,342.4396,114.8847,272.3669,-0.0019477999999999997,-0.00029193,0.0,0 STARLINK-2491,1 48148U 21027BJ  21172.58335648 -.00029193  00000-0 -19478-2 0  9999,2 48148  53.0523 342.4396 0001410 114.8847 272.3669 15.06422461  1754,6925.28,95.59100000000001,548.121,546.168,0.0
48148,STARLINK-2491,PAYLOAD,2021-06-21 16:00:01,15.06418961,0.0001381,53.0521,342.0659,111.8858,7.5415,-0.0021596999999999996,-0.00032321,0.0,0 STARLINK-2491,1 48148U 21027BJ  21172.66668981 -.00032321  00000-0 -21597-2 0  9999,2 48148  53.0521 342.0659 0001381 111.8858   7.5415 15.06418961 12463,6925.29,95.59100000000001,548.112,546.1990000000002,0.0
48148,STARLINK-2491,PAYLOAD,2021-06-22 14:00:01,15.0642545,0.0001456,53.053000000000004,337.9501,109.6644,303.5495,-0.011234000000000001,-0.00163919,0.0,0 STARLINK-2491,1 48148U 21027BJ  21173.58334491 -.00163919  00000-0 -11234-1 0  9991,2 48148  53.0530 337.9501 0001456 109.6644 303.5495 15.06425450  1908,6925.271,95.59100000000001,548.144,546.127,0.0
48148,STARLINK-2491,PAYLOAD,2021-06-22 22:00:01,15.06350403,0.0001409,53.0524,336.4557,96.6645,325.2341,0.004847,0.00072563,0.0,0 STARLINK-2491,1 48148U 21027BJ  21173.91668981  .00072563  00000-0  48470-2 0  9997,2 48148  53.0524 336.4557 0001409  96.6645 325.2341 15.06350403  1951,6925.501,95.595,548.341,546.39,0.0
48148,STARLINK-2491,PAYLOAD,2021-06-23 14:00:01,15.06394649,0.0001395,53.0521,333.4617,100.4237,338.7422,1.6823e-06,-2.56e-06,0.0,0 STARLINK-2491,1 48148U 21027BJ  21174.58334491 -.00000256  00000-0  16823-5 0  9998,2 48148  53.0521 333.4617 0001395 100.4237 338.7422 15.06394649  2058,6925.365,95.59200000000001,548.196,546.264,0.0
48148,STARLINK-2491,PAYLOAD,2021-06-23 22:00:01,15.0641392,0.0001347,53.0521,331.9653,93.5681,354.3313,-0.0032345,-0.00048153,0.0,0 STARLINK-2491,1 48148U 21027BJ  21174.91668981 -.00048153  00000-0 -32345-2 0  9992,2 48148  53.0521 331.9653 0001347  93.5681 354.3313 15.06413920  2106,6925.306,95.59100000000001,548.104,546.238,0.0
48148,STARLINK-2491,PAYLOAD,2021-06-24 06:00:00,15.06301477,0.000175,53.0517,330.4665,85.9152,10.6271,-0.014011000000000001,-0.00202593,0.0,0 STARLINK-2491,1 48148U 21027BJ  21175.25001157 -.00202593  00000-0 -14011-1 0  9995,2 48148  53.0517 330.4665 0001750  85.9152  10.6271 15.06301477 12855,6925.651,95.598,548.7280000000002,546.304,0.0
48148,STARLINK-2491,PAYLOAD,2021-06-24 08:00:01,15.06167454,0.0001865,53.0516,330.092,81.0335,107.74,0.00016727,2.196e-05,0.0,0 STARLINK-2491,1 48148U 21027BJ  21175.33335648  .00002196  00000-0  16727-3 0  9992,2 48148  53.0516 330.0920 0001865  81.0335 107.7400 15.06167454 12869,6926.061,95.60700000000001,549.2180000000002,546.635,0.0
48148,STARLINK-2491,PAYLOAD,2021-06-25 14:00:01,15.06415547,0.00013619999999999998,53.055,324.482,113.4988,17.718,-0.0020457,-0.00030634,0.0,0 STARLINK-2491,1 48148U 21027BJ  21176.58334491 -.00030634  00000-0 -20457-2 0  9999,2 48148  53.0550 324.4820 0001362 113.4988  17.7180 15.06415547  3593,6925.3009999999995,95.59100000000001,548.109,546.2230000000002,0.0
48148,STARLINK-2491,PAYLOAD,2021-06-25 22:00:00,15.06392655,0.0001233,53.0548,322.9864,107.329,32.5756,0.0016631,0.00024572,0.0,0 STARLINK-2491,1 48148U 21027BJ  21176.91667824  .00024572  00000-0  16631-2 0  9996,2 48148  53.0548 322.9864 0001233 107.3290  32.5756 15.06392655 13102,6925.371,95.59299999999999,548.09,546.382,0.0
48148,STARLINK-2491,PAYLOAD,2021-06-26 14:00:01,15.06422299,0.0001299,53.0553,319.9931,115.8724,41.401,-0.0019055999999999997,-0.00028569,0.0,0 STARLINK-2491,1 48148U 21027BJ  21177.58334491 -.00028569  00000-0 -19056-2 0  9997,2 48148  53.0553 319.9931 0001299 115.8724  41.4010 15.06422299 13208,6925.28,95.59100000000001,548.045,546.246,0.0
